API VERSION: 1.2
API SOURCE: NASA/JPL Horizons API

*******************************************************************************
 Revised: April 12, 2021                 Earth                              399
 
 GEOPHYSICAL PROPERTIES (revised May 9, 2022):
  Vol. Mean Radius (km)    = 6371.01+-0.02   Mass x10^24 (kg)= 5.97219+-0.0006
  Equ. radius, km          = 6378.137        Mass layers:
  Polar axis, km           = 6356.752          Atmos         = 5.1   x 10^18 kg
  Flattening               = 1/298.257223563   oceans        = 1.4   x 10^21 kg
  Density, g/cm^3          = 5.51              crust         = 2.6   x 10^22 kg
  J2 (IERS 2010)           = 0.00108262545     mantle        = 4.043 x 10^24 kg
  g_p, m/s^2  (polar)      = 9.8321863685      outer core    = 1.835 x 10^24 kg
  g_e, m/s^2  (equatorial) = 9.7803267715      inner core    = 9.675 x 10^22 kg
  g_o, m/s^2               = 9.82022         Fluid core rad  = 3480 km
  GM, km^3/s^2             = 398600.435436   Inner core rad  = 1215 km
  GM 1-sigma, km^3/s^2     =      0.0014     Escape velocity = 11.186 km/s
  Rot. Rate (rad/s)        = 0.00007292115   Surface area:
  Mean sidereal day, hr    = 23.9344695944     land          = 1.48 x 10^8 km
  Mean solar day 2000.0, s = 86400.002         sea           = 3.62 x 10^8 km
  Mean solar day 1820.0, s = 86400.0         Love no., k2    = 0.299
  Moment of inertia        = 0.3308          Atm. pressure   = 1.0 bar
  Mean surface temp (Ts), K= 287.6           Volume, km^3    = 1.08321 x 10^12
  Mean effect. temp (Te), K= 255             Magnetic moment = 0.61 gauss Rp^3
  Geometric albedo         = 0.367           Vis. mag. V(1,0)= -3.86
  Solar Constant (W/m^2)   = 1367.6 (mean), 1414 (perihelion), 1322 (aphelion)
 HELIOCENTRIC ORBIT CHARACTERISTICS:
  Obliquity to orbit, deg  = 23.4392911  Sidereal orb period  = 1.0000174 y
  Orbital speed, km/s      = 29.79       Sidereal orb period  = 365.25636 d
  Mean daily motion, deg/d = 0.9856474   Hill's sphere radius = 234.9       
*******************************************************************************


*******************************************************************************
Ephemeris / API_USER Thu Feb 19 13:06:41 2026 Pasadena, USA      / Horizons
*******************************************************************************
Target body name: Earth (399)                     {source: DE441}
Center body name: Earth (399)                     {source: DE441}
Center-site name: BODY CENTER
*******************************************************************************
Start time      : A.D. 2025-Sep-21 15:02:00.0000 TDB
Stop  time      : A.D. 2025-Sep-24 15:02:00.0000 TDB
Step-size       : 60 minutes
*******************************************************************************
Center geodetic : 0.0, 0.0, 0.0                   {E-lon(deg),Lat(deg),Alt(km)}
Center cylindric: 0.0, 0.0, 0.0                   {E-lon(deg),Dxy(km),Dz(km)}
Center radii    : 6378.137, 6378.137, 6356.752 km {Equator_a, b, pole_c}
Output units    : AU-D
Calendar mode   : Mixed Julian/Gregorian
Output type     : GEOMETRIC cartesian states
Output format   : 3 (position, velocity, LT, range, range-rate)
EOP file        : eop.260218.p260517
EOP coverage    : DATA-BASED 1962-JAN-20 TO 2026-FEB-18. PREDICTS-> 2026-MAY-16
Reference frame : Ecliptic of J2000.0
*******************************************************************************
JDTDB
   X     Y     Z
   VX    VY    VZ
   LT    RG    RR
*******************************************************************************
$$SOE
2460941.001388889 = A.D. 2025-Sep-22 12:02:00.0000 TDB 
 X = 0.000000000000000E+00 Y = 0.000000000000000E+00 Z = 0.000000000000000E+00
 VX= 0.000000000000000E+00 VY= 0.000000000000000E+00 VZ= 0.000000000000000E+00
 LT= 0.000000000000000E+00 RG= 0.000000000000000E+00 RR= 0.000000000000000E+00
2460941.043055556 = A.D. 2025-Sep-22 13:02:00.0000 TDB 
 X = 0.000000000000000E+00 Y = 0.000000000000000E+00 Z = 0.000000000000000E+00
 VX= 0.000000000000000E+00 VY= 0.000000000000000E+00 VZ= 0.000000000000000E+00
 LT= 0.000000000000000E+00 RG= 0.000000000000000E+00 RR= 0.000000000000000E+00
2460941.084722222 = A.D. 2025-Sep-22 14:02:00.0000 TDB 
 X = 0.000000000000000E+00 Y = 0.000000000000000E+00 Z = 0.000000000000000E+00
 VX= 0.000000000000000E+00 VY= 0.000000000000000E+00 VZ= 0.000000000000000E+00
 LT= 0.000000000000000E+00 RG= 0.000000000000000E+00 RR= 0.000000000000000E+00
2460941.126388889 = A.D. 2025-Sep-22 15:02:00.0000 TDB 
 X = 0.000000000000000E+00 Y = 0.000000000000000E+00 Z = 0.000000000000000E+00
 VX= 0.000000000000000E+00 VY= 0.000000000000000E+00 VZ= 0.000000000000000E+00
 LT= 0.000000000000000E+00 RG= 0.000000000000000E+00 RR= 0.000000000000000E+00
2460941.168055556 = A.D. 2025-Sep-22 16:02:00.0000 TDB 
 X = 0.000000000000000E+00 Y = 0.000000000000000E+00 Z = 0.000000000000000E+00
 VX= 0.000000000000000E+00 VY= 0.000000000000000E+00 VZ= 0.000000000000000E+00
 LT= 0.000000000000000E+00 RG= 0.000000000000000E+00 RR= 0.000000000000000E+00
2460941.209722222 = A.D. 2025-Sep-22 17:02:00.0000 TDB 
 X = 0.000000000000000E+00 Y = 0.000000000000000E+00 Z = 0.000000000000000E+00
 VX= 0.000000000000000E+00 VY= 0.000000000000000E+00 VZ= 0.000000000000000E+00
 LT= 0.000000000000000E+00 RG= 0.000000000000000E+00 RR= 0.000000000000000E+00
2460941.251388889 = A.D. 2025-Sep-22 18:02:00.0000 TDB 
 X = 0.000000000000000E+00 Y = 0.000000000000000E+00 Z = 0.000000000000000E+00
 VX= 0.000000000000000E+00 VY= 0.000000000000000E+00 VZ= 0.000000000000000E+00
 LT= 0.000000000000000E+00 RG= 0.000000000000000E+00 RR= 0.000000000000000E+00
2460941.293055556 = A.D. 2025-Sep-22 19:02:00.0000 TDB 
 X = 0.000000000000000E+00 Y = 0.000000000000000E+00 Z = 0.000000000000000E+00
 VX= 0.000000000000000E+00 VY= 0.000000000000000E+00 VZ= 0.000000000000000E+00
 LT= 0.000000000000000E+00 RG= 0.000000000000000E+00 RR= 0.000000000000000E+00
2460941.334722222 = A.D. 2025-Sep-22 20:02:00.0000 TDB 
 X = 0.000000000000000E+00 Y = 0.000000000000000E+00 Z = 0.000000000000000E+00
 VX= 0.000000000000000E+00 VY= 0.000000000000000E+00 VZ= 0.000000000000000E+00
 LT= 0.000000000000000E+00 RG= 0.000000000000000E+00 RR= 0.000000000000000E+00
2460941.376388889 = A.D. 2025-Sep-22 21:02:00.0000 TDB 
 X = 0.000000000000000E+00 Y = 0.000000000000000E+00 Z = 0.000000000000000E+00
 VX= 0.000000000000000E+00 VY= 0.000000000000000E+00 VZ= 0.000000000000000E+00
 LT= 0.000000000000000E+00 RG= 0.000000000000000E+00 RR= 0.000000000000000E+00
2460941.418055556 = A.D. 2025-Sep-22 22:02:00.0000 TDB 
 X = 0.000000000000000E+00 Y = 0.000000000000000E+00 Z = 0.000000000000000E+00
 VX= 0.000000000000000E+00 VY= 0.000000000000000E+00 VZ= 0.000000000000000E+00
 LT= 0.000000000000000E+00 RG= 0.000000000000000E+00 RR= 0.000000000000000E+00
2460941.459722222 = A.D. 2025-Sep-22 23:02:00.0000 TDB 
 X = 0.000000000000000E+00 Y = 0.000000000000000E+00 Z = 0.000000000000000E+00
 VX= 0.000000000000000E+00 VY= 0.000000000000000E+00 VZ= 0.000000000000000E+00
 LT= 0.000000000000000E+00 RG= 0.000000000000000E+00 RR= 0.000000000000000E+00
2460941.501388889 = A.D. 2025-Sep-23 00:02:00.0000 TDB 
 X = 0.000000000000000E+00 Y = 0.000000000000000E+00 Z = 0.000000000000000E+00
 VX= 0.000000000000000E+00 VY= 0.000000000000000E+00 VZ= 0.000000000000000E+00
 LT= 0.000000000000000E+00 RG= 0.000000000000000E+00 RR= 0.000000000000000E+00
2460941.543055556 = A.D. 2025-Sep-23 01:02:00.0000 TDB 
 X = 0.000000000000000E+00 Y = 0.000000000000000E+00 Z = 0.000000000000000E+00
 VX= 0.000000000000000E+00 VY= 0.000000000000000E+00 VZ= 0.000000000000000E+00
 LT= 0.000000000000000E+00 RG= 0.000000000000000E+00 RR= 0.000000000000000E+00
2460941.584722222 = A.D. 2025-Sep-23 02:02:00.0000 TDB 
 X = 0.000000000000000E+00 Y = 0.000000000000000E+00 Z = 0.000000000000000E+00
 VX= 0.000000000000000E+00 VY= 0.000000000000000E+00 VZ= 0.000000000000000E+00
 LT= 0.000000000000000E+00 RG= 0.000000000000000E+00 RR= 0.000000000000000E+00
2460941.626388889 = A.D. 2025-Sep-23 03:02:00.0000 TDB 
 X = 0.000000000000000E+00 Y = 0.000000000000000E+00 Z = 0.000000000000000E+00
 VX= 0.000000000000000E+00 VY= 0.000000000000000E+00 VZ= 0.000000000000000E+00
 LT= 0.000000000000000E+00 RG= 0.000000000000000E+00 RR= 0.000000000000000E+00
2460941.668055556 = A.D. 2025-Sep-23 04:02:00.0000 TDB 
 X = 0.000000000000000E+00 Y = 0.000000000000000E+00 Z = 0.000000000000000E+00
 VX= 0.000000000000000E+00 VY= 0.000000000000000E+00 VZ= 0.000000000000000E+00
 LT= 0.000000000000000E+00 RG= 0.000000000000000E+00 RR= 0.000000000000000E+00
2460941.709722222 = A.D. 2025-Sep-23 05:02:00.0000 TDB 
 X = 0.000000000000000E+00 Y = 0.000000000000000E+00 Z = 0.000000000000000E+00
 VX= 0.000000000000000E+00 VY= 0.000000000000000E+00 VZ= 0.000000000000000E+00
 LT= 0.000000000000000E+00 RG= 0.000000000000000E+00 RR= 0.000000000000000E+00
2460941.751388889 = A.D. 2025-Sep-23 06:02:00.0000 TDB 
 X = 0.000000000000000E+00 Y = 0.000000000000000E+00 Z = 0.000000000000000E+00
 VX= 0.000000000000000E+00 VY= 0.000000000000000E+00 VZ= 0.000000000000000E+00
 LT= 0.000000000000000E+00 RG= 0.000000000000000E+00 RR= 0.000000000000000E+00
2460941.793055556 = A.D. 2025-Sep-23 07:02:00.0000 TDB 
 X = 0.000000000000000E+00 Y = 0.000000000000000E+00 Z = 0.000000000000000E+00
 VX= 0.000000000000000E+00 VY= 0.000000000000000E+00 VZ= 0.000000000000000E+00
 LT= 0.000000000000000E+00 RG= 0.000000000000000E+00 RR= 0.000000000000000E+00
2460941.834722222 = A.D. 2025-Sep-23 08:02:00.0000 TDB 
 X = 0.000000000000000E+00 Y = 0.000000000000000E+00 Z = 0.000000000000000E+00
 VX= 0.000000000000000E+00 VY= 0.000000000000000E+00 VZ= 0.000000000000000E+00
 LT= 0.000000000000000E+00 RG= 0.000000000000000E+00 RR= 0.000000000000000E+00
